{"type": "FeatureCollection", "features": [ {"type": "Feature", "properties": {"norad_id": 31567, "name": "FENGYUN 1C DEB", "group": "fengyun-1c-debris", "lat": 18.31587394108393, "lon": -152.13820808583276, "alt_km": 864.5932200289526, "timestamp": "2025-12-11T15:53:39.825867+00:00", "meta": {"OBJECT_NAME": "FENGYUN 1C DEB", "OBJECT_ID": "1999-025BZJ", "EPOCH": "2025-12-10T13:56:53.305728", "MEAN_MOTION": 13.92850681, "ECCENTRICITY": 0.0187191, "INCLINATION": 102.3172, "RA_OF_ASC_NODE": 210.5754, "ARG_OF_PERICENTER": 313.8158, "MEAN_ANOMALY": 44.7642, "EPHEMERIS_TYPE": 0, "CLASSIFICATION_TYPE": "U", "NORAD_CAT_ID": 31567, "ELEMENT_SET_NO": 999, "REV_AT_EPOCH": 67379, "BSTAR": 0.0044323, "MEAN_MOTION_DOT": 6.57e-05, "MEAN_MOTION_DDOT": 0}, "tle": {"line1": "1 31567U 99025BZJ 25344.58117252  .00006570  00000+0  44323-2 0  9991", "line2": "2 31567 102.3172 210.5754 0187191 313.8158  44.7642 13.92850681673792"}}, "geometry": {"type": "Point", "coordinates": [-152.13820808583276, 18.31587394108393]}}, {"type": "Feature", "properties": {"norad_id": 31568, "name": "FENGYUN 1C DEB", "group": "fengyun-1c-debris", "lat": 26.52303621316208, "lon": 53.55043950010169, "alt_km": 803.860857147888, "timestamp": "2025-12-11T15:53:39.825877+00:00", "meta": {"OBJECT_NAME": "FENGYUN 1C DEB", "OBJECT_ID": "1999-025BZK", "EPOCH": "2025-12-10T10:05:22.566912", "MEAN_MOTION": 14.03316022, "ECCENTRICITY": 0.0122205, "INCLINATION": 102.0467, "RA_OF_ASC_NODE": 225.7933, "ARG_OF_PERICENTER": 125.9875, "MEAN_ANOMALY": 235.2683, "EPHEMERIS_TYPE": 0, "CLASSIFICATION_TYPE": "U", "NORAD_CAT_ID": 31568, "ELEMENT_SET_NO": 999, "REV_AT_EPOCH": 94547, "BSTAR": 0.0032274062, "MEAN_MOTION_DOT": 5.32e-05, "MEAN_MOTION_DDOT": 0}, "tle": {"line1": "1 31568U 99025BZK 25344.42040008  .00005320  00000+0  32274-2 0  9993", "line2": "2 31568 102.0467 225.7933 0122205 125.9875 235.2683 14.03316022945475"}}, "geometry": {"type": "Point", "coordinates": [53.55043950010169, 26.52303621316208]}}, {"type": "Feature", "properties": {"norad_id": 31569, "name": "FENGYUN 1C DEB", "group": "fengyun-1c-debris", "lat": 4.225307829460678, "lon": 141.5425358126783, "alt_km": 785.3612988529385, "timestamp": "2025-12-11T15:53:39.825887+00:00", "meta": {"OBJECT_NAME": "FENGYUN 1C DEB", "OBJECT_ID": "1999-025BZL", "EPOCH": "2025-12-11T04:42:04.551264", "MEAN_MOTION": 13.95512618, "ECCENTRICITY": 0.0173558, "INCLINATION": 102.6164, "RA_OF_ASC_NODE": 141.8545, "ARG_OF_PERICENTER": 9.8068, "MEAN_ANOMALY": 172.867, "EPHEMERIS_TYPE": 0, "CLASSIFICATION_TYPE": "U", "NORAD_CAT_ID": 31569, "ELEMENT_SET_NO": 999, "REV_AT_EPOCH": 93657, "BSTAR": 0.0032998243, "MEAN_MOTION_DOT": 5.016e-05, "MEAN_MOTION_DDOT": 0}, "tle": {"line1": "1 31569U 99025BZL 25345.19588601  .00005016  00000+0  32998-2 0  9990", "line2": "2 31569 102.6164 141.8545 0173558   9.8068 172.8670 13.95512618936576"}}, "geometry": {"type": "Point", "coordinates": [141.5425358126783, 4.225307829460678]}}, {"type": "Feature", "properties": {"norad_id": 31570, "name": "FENGYUN 1C DEB", "group": "fengyun-1c-debris", "lat": 49.67721324595243, "lon": -140.63204156048712, "alt_km": 816.0911795404445, "timestamp": "2025-12-11T15:53:39.825897+00:00", "meta": {"OBJECT_NAME": "FENGYUN 1C DEB", "OBJECT_ID": "1999-025BZM", "EPOCH": "2025-12-08T08:05:21.380064", "MEAN_MOTION": 14.25110084, "ECCENTRICITY": 0.01541377, "INCLINATION": 102.5654, "RA_OF_ASC_NODE": 19.3892, "ARG_OF_PERICENTER": 234.4422, "MEAN_ANOMALY": 124.229, "EPHEMERIS_TYPE": 0, "CLASSIFICATION_TYPE": "U", "NORAD_CAT_ID": 31570, "ELEMENT_SET_NO": 999, "REV_AT_EPOCH": 63304, "BSTAR": 0.0030419065, "MEAN_MOTION_DOT": 8.009e-05, "MEAN_MOTION_DDOT": 0}, "tle": {"line1": "1 31570U 99025BZM 25342.33705301  .00008009  00000+0  30419-2 0  9994", "line2": "2 31570 102.5654  19.3892 0154137 234.4422 124.2290 14.25110084633047"}}, "geometry": {"type": "Point", "coordinates": [-140.63204156048712, 49.67721324595243]}}, {"type": "Feature", "properties": {"norad_id": 31608, "name": "FENGYUN 1C DEB", "group": "fengyun-1c-debris", "lat": -8.383111703976207, "lon": 104.99087898628164, "alt_km": 547.3728665531462, "timestamp": "2025-12-11T15:53:39.825907+00:00", "meta": {"OBJECT_NAME": "FENGYUN 1C DEB", "OBJECT_ID": "1999-025BZN", "EPOCH": "2025-12-04T14:13:29.603136", "MEAN_MOTION": 14.85679772, "ECCENTRICITY": 0.0146671, "INCLINATION": 98.3801, "RA_OF_ASC_NODE": 96.302, "ARG_OF_PERICENTER": 63.9077, "MEAN_ANOMALY": 297.7147, "EPHEMERIS_TYPE": 0, "CLASSIFICATION_TYPE": "U", "NORAD_CAT_ID": 31608, "ELEMENT_SET_NO": 999, "REV_AT_EPOCH": 98512, "BSTAR": 0.0015593, "MEAN_MOTION_DOT": 0.00016394, "MEAN_MOTION_DDOT": 0}, "tle": {"line1": "1 31608U 99025BZN 25338.59270374  .00016394  00000+0  15593-2 0  9998", "line2": "2 31608  98.3801  96.3020 0146671  63.9077 297.7147 14.85679772985124"}}, "geometry": {"type": "Point", "coordinates": [104.99087898628164, -8.383111703976207]}}, {"type": "Feature", "properties": {"norad_id": 31609, "name": "FENGYUN 1C DEB", "group": "fengyun-1c-debris", "lat": 78.63548458262494, "lon": -111.97139123170643, "alt_km": 878.7884000427912, "timestamp": "2025-12-11T15:53:39.825919+00:00", "meta": {"OBJECT_NAME": "FENGYUN 1C DEB", "OBJECT_ID": "1999-025BZP", "EPOCH": "2025-12-07T01:19:25.751424", "MEAN_MOTION": 14.156767, "ECCENTRICITY": 0.0094908, "INCLINATION": 99.216, "RA_OF_ASC_NODE": 9.388, "ARG_OF_PERICENTER": 336.5905, "MEAN_ANOMALY": 51.8314, "EPHEMERIS_TYPE": 0, "CLASSIFICATION_TYPE": "U", "NORAD_CAT_ID": 31609, "ELEMENT_SET_NO": 999, "REV_AT_EPOCH": 66004, "BSTAR": 0.0037519883, "MEAN_MOTION_DOT": 7.643e-05, "MEAN_MOTION_DDOT": 0}, "tle": {"line1": "1 31609U 99025BZP 25341.05515916  .00007643  00000+0  37520-2 0  9999", "line2": "2 31609  99.2160   9.3880 0094908 336.5905  51.8314 14.15676700660042"}}, "geometry": {"type": "Point", "coordinates": [-111.97139123170643, 78.63548458262494]}}, {"type": "Feature", "properties": {"norad_id": 31612, "name": "FENGYUN 1C DEB", "group": "fengyun-1c-debris", "lat": -16.082470985570524, "lon": -96.2696827208357, "alt_km": 375.4077649836963, "timestamp": "2025-12-11T15:53:39.825929+00:00", "meta": {"OBJECT_NAME": "FENGYUN 1C DEB", "OBJECT_ID": "1999-025BZS", "EPOCH": "2025-12-01T12:16:23.743488", "MEAN_MOTION": 15.64490278, "ECCENTRICITY": 0.0032996, "INCLINATION": 100.3326, "RA_OF_ASC_NODE": 245.8344, "ARG_OF_PERICENTER": 135.7947, "MEAN_ANOMALY": 224.5947, "EPHEMERIS_TYPE": 0, "CLASSIFICATION_TYPE": "U", "NORAD_CAT_ID": 31612, "ELEMENT_SET_NO": 999, "REV_AT_EPOCH": 99986, "BSTAR": 0.0022266696, "MEAN_MOTION_DOT": 0.00225538, "MEAN_MOTION_DDOT": 0}, "tle": {"line1": "1 31612U 99025BZS 25335.51138592  .00225538  00000+0  22267-2 0  9995", "line2": "2 31612 100.3326 245.8344 0032996 135.7947 224.5947 15.64490278999865"}}, "geometry": {"type": "Point", "coordinates": [-96.2696827208357, -16.082470985570524]}}, {"type": "Feature", "properties": {"norad_id": 31613, "name": "FENGYUN 1C DEB", "group": "fengyun-1c-debris", "lat": -68.48701806803149, "lon": -165.065802387525, "alt_km": 1284.200394597945, "timestamp": "2025-12-11T15:53:39.825939+00:00", "meta": {"OBJECT_NAME": "FENGYUN 1C DEB", "OBJECT_ID": "1999-025BZT", "EPOCH": "2025-12-11T05:41:18.558240", "MEAN_MOTION": 13.63434585, "ECCENTRICITY": 0.03428047, "INCLINATION": 98.4244, "RA_OF_ASC_NODE": 172.4816, "ARG_OF_PERICENTER": 110.0225, "MEAN_ANOMALY": 253.817, "EPHEMERIS_TYPE": 0, "CLASSIFICATION_TYPE": "U", "NORAD_CAT_ID": 31613, "ELEMENT_SET_NO": 999, "REV_AT_EPOCH": 91741, "BSTAR": 0.001882349, "MEAN_MOTION_DOT": 2.176e-05, "MEAN_MOTION_DDOT": 0}, "tle": {"line1": "1 31613U 99025BZT 25345.23702035  .00002176  00000+0  18823-2 0  9999", "line2": "2 31613  98.4244 172.4816 0342804 110.0225 253.8170 13.63434585917418"}}, "geometry": {"type": "Point", "coordinates": [-165.065802387525, -68.48701806803149]}}, {"type": "Feature", "properties": {"norad_id": 31614, "name": "FENGYUN 1C DEB", "group": "fengyun-1c-debris", "lat": 4.446461524555347, "lon": 71.99454532209886, "alt_km": 592.7150153089342, "timestamp": "2025-12-11T15:53:39.825952+00:00", "meta": {"OBJECT_NAME": "FENGYUN 1C DEB", "OBJECT_ID": "1999-025BZU", "EPOCH": "2025-12-11T07:38:57.954048", "MEAN_MOTION": 14.97025295, "ECCENTRICITY": 0.00215615, "INCLINATION": 98.9735, "RA_OF_ASC_NODE": 250.8966, "ARG_OF_PERICENTER": 9.1699, "MEAN_ANOMALY": 115.7425, "EPHEMERIS_TYPE": 0, "CLASSIFICATION_TYPE": "U", "NORAD_CAT_ID": 31614, "ELEMENT_SET_NO": 999, "REV_AT_EPOCH": 96408, "BSTAR": 0.017094065, "MEAN_MOTION_DOT": 0.00203326, "MEAN_MOTION_DDOT": 0}, "tle": {"line1": "1 31614U 99025BZU 25345.31872632  .00203326  00000+0  17094-1 0  9998", "line2": "2 31614  98.9735 250.8966 0021561   9.1699 115.7425 14.97025295964089"}}, "geometry": {"type": "Point", "coordinates": [71.99454532209886, 4.446461524555347]}}, {"type": "Feature", "properties": {"norad_id": 31615, "name": "FENGYUN 1C DEB", "group": "fengyun-1c-debris", "lat": -60.6977442840659, "lon": -159.63779608169583, "alt_km": 754.6696066340382, "timestamp": "2025-12-11T15:53:39.825963+00:00", "meta": {"OBJECT_NAME": "FENGYUN 1C DEB", "OBJECT_ID": "1999-025BZV", "EPOCH": "2025-12-09T09:13:03.303264", "MEAN_MOTION": 14.35238399, "ECCENTRICITY": 0.01658212, "INCLINATION": 99.1374, "RA_OF_ASC_NODE": 34.6157, "ARG_OF_PERICENTER": 326.6289, "MEAN_ANOMALY": 32.4527, "EPHEMERIS_TYPE": 0, "CLASSIFICATION_TYPE": "U", "NORAD_CAT_ID": 31615, "ELEMENT_SET_NO": 999, "REV_AT_EPOCH": 65230, "BSTAR": 0.0040985, "MEAN_MOTION_DOT": 0.00013677, "MEAN_MOTION_DDOT": 0}, "tle": {"line1": "1 31615U 99025BZV 25343.38406601  .00013677  00000+0  40985-2 0  9997", "line2": "2 31615  99.1374  34.6157 0165821 326.6289  32.4527 14.35238399652302"}}, "geometry": {"type": "Point", "coordinates": [-159.63779608169583, -60.6977442840659]}}]}